[{"OBJECT_NAME":"STARLINK-30585","OBJECT_ID":"2023-158N","EPOCH":"2026-03-09T22:00:01.999584","MEAN_MOTION":15.27528607,"ECCENTRICITY":0.00013177,"INCLINATION":43.0006,"RA_OF_ASC_NODE":25.8306,"ARG_OF_PERICENTER":243.4062,"MEAN_ANOMALY":124.873,"EPHEMERIS_TYPE":0,"CLASSIFICATION_TYPE":"U","NORAD_CAT_ID":58063,"ELEMENT_SET_NO":999,"REV_AT_EPOCH":552,"BSTAR":0.001444868,"MEAN_MOTION_DOT":0.00039649,"MEAN_MOTION_DDOT":0},{"OBJECT_NAME":"LIME","OBJECT_ID":"2025-009AR","EPOCH":"2026-03-09T17:44:15.459648","MEAN_MOTION":15.28703313,"ECCENTRICITY":0.00016347,"INCLINATION":97.3985,"RA_OF_ASC_NODE":151.4831,"ARG_OF_PERICENTER":35.9029,"MEAN_ANOMALY":324.232,"EPHEMERIS_TYPE":0,"CLASSIFICATION_TYPE":"U","NORAD_CAT_ID":62648,"ELEMENT_SET_NO":999,"REV_AT_EPOCH":6376,"BSTAR":0.00047722827,"MEAN_MOTION_DOT":0.00013254,"MEAN_MOTION_DDOT":0}]
